SOYUZ-MS 28             
1 66664U 25275A   26013.20897862  .00008852  00000+0  16699-3 0  9999
2 66664  51.6330 346.6801 0007741  12.6584 347.4598 15.49269250  1285
1998-067XS              
1 66906U 98067XS  26013.29107865  .00021665  00000+0  35479-3 0  9997
2 66906  51.6319 345.7304 0002274   7.7868 352.3157 15.52417467  6511
1998-067XT              
1 66907U 98067XT  26013.17962447  .00055216  00000+0  77492-3 0  9990
2 66907  51.6317 345.7361 0003627  51.8232 308.3086 15.56178219  6505
1998-067XU              
1 66908U 98067XU  26013.30710936  .00066277  00000+0  92787-3 0  9993
2 66908  51.6301 345.0854 0003609  49.5232 310.6074 15.56166729  6521
SILVERSAT               
1 66909U 98067XV  26013.29929044  .00073481  00000+0  10009-2 0  9995
2 66909  51.6313 345.0339 0003865  59.9935 300.1440 15.56861412  6524
1998-067XW              
1 66910U 98067XW  26013.17202327  .00064686  00000+0  89547-3 0  9993
2 66910  51.6295 345.6826 0002652  33.2166 326.8992 15.56483788  6507
1998-067XX              
1 66911U 98067XX  26013.15803233  .00082082  00000+0  10861-2 0  9997
2 66911  51.6296 345.5900 0002750  51.6715 308.4524 15.57595196  6497
1998-067XY              
1 66912U 98067XY  26013.19682969  .00042907  00000+0  63633-3 0  9991
2 66912  51.6313 345.8500 0003432  35.4305 324.6913 15.54787478  6495
