CCSDS_OMM_VERS = 2.0
CREATION_DATE  = 
ORIGINATOR     = 

OBJECT_NAME    = SOYUZ-MS 28
OBJECT_ID      = 2025-275A
CENTER_NAME    = EARTH
REF_FRAME      = TEME
TIME_SYSTEM    = UTC
MEAN_ELEMENT_THEORY = SGP/SGP4

EPOCH          = 2026-01-13T05:00:55.752768
MEAN_MOTION    = 15.49269250
ECCENTRICITY   = .00077414
INCLINATION    = 51.6330
RA_OF_ASC_NODE = 346.6801
ARG_OF_PERICENTER = 12.6584
MEAN_ANOMALY   = 347.4598

EPHEMERIS_TYPE = 0
CLASSIFICATION_TYPE = U
NORAD_CAT_ID   = 66664
ELEMENT_SET_NO = 999
REV_AT_EPOCH   = 128
BSTAR          = .16698581E-3
MEAN_MOTION_DOT = .8852E-4
MEAN_MOTION_DDOT = 0

CCSDS_OMM_VERS = 2.0
CREATION_DATE  = 
ORIGINATOR     = 

OBJECT_NAME    = 1998-067XS
OBJECT_ID      = 1998-067XS
CENTER_NAME    = EARTH
REF_FRAME      = TEME
TIME_SYSTEM    = UTC
MEAN_ELEMENT_THEORY = SGP/SGP4

EPOCH          = 2026-01-13T06:59:09.195360
MEAN_MOTION    = 15.52417467
ECCENTRICITY   = .00022745
INCLINATION    = 51.6319
RA_OF_ASC_NODE = 345.7304
ARG_OF_PERICENTER = 7.7868
MEAN_ANOMALY   = 352.3157

EPHEMERIS_TYPE = 0
CLASSIFICATION_TYPE = U
NORAD_CAT_ID   = 66906
ELEMENT_SET_NO = 999
REV_AT_EPOCH   = 651
BSTAR          = .35478931E-3
MEAN_MOTION_DOT = .21665E-3
MEAN_MOTION_DDOT = 0

CCSDS_OMM_VERS = 2.0
CREATION_DATE  = 
ORIGINATOR     = 

OBJECT_NAME    = 1998-067XT
OBJECT_ID      = 1998-067XT
CENTER_NAME    = EARTH
REF_FRAME      = TEME
TIME_SYSTEM    = UTC
MEAN_ELEMENT_THEORY = SGP/SGP4

EPOCH          = 2026-01-13T04:18:39.554208
MEAN_MOTION    = 15.56178219
ECCENTRICITY   = .00036278
INCLINATION    = 51.6317
RA_OF_ASC_NODE = 345.7361
ARG_OF_PERICENTER = 51.8232
MEAN_ANOMALY   = 308.3086

EPHEMERIS_TYPE = 0
CLASSIFICATION_TYPE = U
NORAD_CAT_ID   = 66907
ELEMENT_SET_NO = 999
REV_AT_EPOCH   = 650
BSTAR          = .77491509E-3
MEAN_MOTION_DOT = .55216E-3
MEAN_MOTION_DDOT = 0

CCSDS_OMM_VERS = 2.0
CREATION_DATE  = 
ORIGINATOR     = 

OBJECT_NAME    = 1998-067XU
OBJECT_ID      = 1998-067XU
CENTER_NAME    = EARTH
REF_FRAME      = TEME
TIME_SYSTEM    = UTC
MEAN_ELEMENT_THEORY = SGP/SGP4

EPOCH          = 2026-01-13T07:22:14.248704
MEAN_MOTION    = 15.56166729
ECCENTRICITY   = .00036098
INCLINATION    = 51.6301
RA_OF_ASC_NODE = 345.0854
ARG_OF_PERICENTER = 49.5232
MEAN_ANOMALY   = 310.6074

EPHEMERIS_TYPE = 0
CLASSIFICATION_TYPE = U
NORAD_CAT_ID   = 66908
ELEMENT_SET_NO = 999
REV_AT_EPOCH   = 652
BSTAR          = .92787297E-3
MEAN_MOTION_DOT = .66277E-3
MEAN_MOTION_DDOT = 0

CCSDS_OMM_VERS = 2.0
CREATION_DATE  = 
ORIGINATOR     = 

OBJECT_NAME    = SILVERSAT
OBJECT_ID      = 1998-067XV
CENTER_NAME    = EARTH
REF_FRAME      = TEME
TIME_SYSTEM    = UTC
MEAN_ELEMENT_THEORY = SGP/SGP4

EPOCH          = 2026-01-13T07:10:58.694016
MEAN_MOTION    = 15.56861412
ECCENTRICITY   = .00038655
INCLINATION    = 51.6313
RA_OF_ASC_NODE = 345.0339
ARG_OF_PERICENTER = 59.9935
MEAN_ANOMALY   = 300.1440

EPHEMERIS_TYPE = 0
CLASSIFICATION_TYPE = U
NORAD_CAT_ID   = 66909
ELEMENT_SET_NO = 999
REV_AT_EPOCH   = 652
BSTAR          = .10009109E-2
MEAN_MOTION_DOT = .73481E-3
MEAN_MOTION_DDOT = 0

CCSDS_OMM_VERS = 2.0
CREATION_DATE  = 
ORIGINATOR     = 

OBJECT_NAME    = 1998-067XW
OBJECT_ID      = 1998-067XW
CENTER_NAME    = EARTH
REF_FRAME      = TEME
TIME_SYSTEM    = UTC
MEAN_ELEMENT_THEORY = SGP/SGP4

EPOCH          = 2026-01-13T04:07:42.810528
MEAN_MOTION    = 15.56483788
ECCENTRICITY   = .00026529
INCLINATION    = 51.6295
RA_OF_ASC_NODE = 345.6826
ARG_OF_PERICENTER = 33.2166
MEAN_ANOMALY   = 326.8992

EPHEMERIS_TYPE = 0
CLASSIFICATION_TYPE = U
NORAD_CAT_ID   = 66910
ELEMENT_SET_NO = 999
REV_AT_EPOCH   = 650
BSTAR          = .89547271E-3
MEAN_MOTION_DOT = .64686E-3
MEAN_MOTION_DDOT = 0

CCSDS_OMM_VERS = 2.0
CREATION_DATE  = 
ORIGINATOR     = 

OBJECT_NAME    = 1998-067XX
OBJECT_ID      = 1998-067XX
CENTER_NAME    = EARTH
REF_FRAME      = TEME
TIME_SYSTEM    = UTC
MEAN_ELEMENT_THEORY = SGP/SGP4

EPOCH          = 2026-01-13T03:47:33.993312
MEAN_MOTION    = 15.57595196
ECCENTRICITY   = .00027502
INCLINATION    = 51.6296
RA_OF_ASC_NODE = 345.5900
ARG_OF_PERICENTER = 51.6715
MEAN_ANOMALY   = 308.4524

EPHEMERIS_TYPE = 0
CLASSIFICATION_TYPE = U
NORAD_CAT_ID   = 66911
ELEMENT_SET_NO = 999
REV_AT_EPOCH   = 649
BSTAR          = .1086091E-2
MEAN_MOTION_DOT = .82082E-3
MEAN_MOTION_DDOT = 0

CCSDS_OMM_VERS = 2.0
CREATION_DATE  = 
ORIGINATOR     = 

OBJECT_NAME    = 1998-067XY
OBJECT_ID      = 1998-067XY
CENTER_NAME    = EARTH
REF_FRAME      = TEME
TIME_SYSTEM    = UTC
MEAN_ELEMENT_THEORY = SGP/SGP4

EPOCH          = 2026-01-13T04:43:26.085216
MEAN_MOTION    = 15.54787478
ECCENTRICITY   = .00034321
INCLINATION    = 51.6313
RA_OF_ASC_NODE = 345.8500
ARG_OF_PERICENTER = 35.4305
MEAN_ANOMALY   = 324.6913

EPHEMERIS_TYPE = 0
CLASSIFICATION_TYPE = U
NORAD_CAT_ID   = 66912
ELEMENT_SET_NO = 999
REV_AT_EPOCH   = 649
BSTAR          = .63633347E-3
MEAN_MOTION_DOT = .42907E-3
MEAN_MOTION_DDOT = 0

